     2.100          NAVIGATION                              RINEX VERSION / TYPE
fic2rin                                 09/09/2009 01:25:08 PGM / RUN BY / DATE
                                                            END OF HEADER
28 09  9  3 18  0  0.0 -.261953100562D-04  .113686837722D-12  .000000000000D+00
     .780000000000D+02 -.865312500000D+02  .458340520294D-08  .221210681851D+01
    -.468641519547D-05  .150611937279D-01  .465847551823D-05  .515365406609D+04
     .410400000000D+06  .745058059692D-08  .206825687833D+01 -.314787030220D-06
     .967371745796D+00  .294843750000D+03 -.201895461825D+01 -.805426406386D-08
    -.312513017422D-09  .100000000000D+01  .154700000000D+04  .000000000000D+00
     .240000000000D+01  .000000000000D+00 -.102445483208D-07  .780000000000D+02
     .403206000000D+06  .400000000000D+01
29 09  9  3 18  0  0.0  .543417409062D-04  .329691829393D-11  .000000000000D+00
     .180000000000D+02 -.310625000000D+02  .424731977506D-08 -.202788059097D+01
    -.171363353729D-05  .315143878106D-02  .129956752062D-04  .515362817001D+04
     .410400000000D+06 -.558793544769D-08  .311085266320D+01  .987201929092D-07
     .960626896160D+00  .126718750000D+03 -.128065545790D+01 -.777032366517D-08
     .392873507616D-11  .100000000000D+01  .154700000000D+04  .000000000000D+00
     .240000000000D+01  .000000000000D+00 -.884756445885D-08  .180000000000D+02
     .403206000000D+06  .400000000000D+01
30 09  9  3 18  0  0.0  .173940788954D-03  .306954461848D-11  .000000000000D+00
     .980000000000D+02 -.880312500000D+02  .506735393277D-08  .270129280403D+01
    -.460259616375D-05  .118812528672D-01  .349059700966D-05  .515367549133D+04
     .410400000000D+06  .130385160446D-06  .199372940916D+01 -.135973095894D-06
     .952846164473D+00  .305250000000D+03  .144965054312D+01 -.835641950699D-08
    -.374301305437D-09  .100000000000D+01  .154700000000D+04  .000000000000D+00
     .340000000000D+01  .000000000000D+00 -.791624188423D-08  .980000000000D+02
     .403206000000D+06  .400000000000D+01
31 09  9  3 18  0  0.0 -.647106207907D-04  .227373675443D-12  .000000000000D+00
     .410000000000D+02  .843125000000D+02  .457483341732D-08 -.127868837290D+01
     .442564487457D-05  .701265328098D-02  .518187880516D-05  .515377703285D+04
     .410400000000D+06 -.188127160072D-06  .988308700190D+00 -.186264514923D-07
     .973815126052D+00  .292625000000D+03 -.113898813883D+01 -.828998816843D-08
     .509664086698D-09  .100000000000D+01  .154700000000D+04  .000000000000D+00
     .240000000000D+01  .000000000000D+00 -.130385160446D-07  .410000000000D+02
     .403206000000D+06  .400000000000D+01
32 09  9  3 18  0  0.0  .203328207135D-03 -.693489710102D-11  .000000000000D+00
     .310000000000D+02 -.547812500000D+02  .459840582777D-08 -.355188887843D+00
    -.278465449810D-05  .132545568049D-01  .668317079544D-05  .515372427750D+04
     .410400000000D+06 -.316649675369D-06 -.101918975830D+01 -.145286321640D-06
     .962365034481D+00  .255593750000D+03 -.112487052440D+01 -.828998816843D-08
    -.412160025262D-09  .100000000000D+01  .154700000000D+04  .000000000000D+00
     .340000000000D+01  .000000000000D+00 -.325962901115D-08  .310000000000D+02
     .403206000000D+06  .400000000000D+01
 1 09  9  3 19  0  0.0 -.573331490159D-04  .227373675443D-12  .000000000000D+00
     .113000000000D+03 -.869062500000D+02  .615597070660D-08 -.266473644593D+01
    -.455975532532D-05  .375327374786D-02  .426732003689D-05  .515371945763D+04
     .414000000000D+06  .169500708580D-06  .203032625938D+01 -.763684511185D-07
     .961637479970D+00  .296843750000D+03  .968677594750D+00 -.841713632180D-08
    -.290369237901D-09  .100000000000D+01  .154700000000D+04  .000000000000D+00
     .485000000000D+01  .630000000000D+02 -.190921127796D-07  .113000000000D+03
     .403206000000D+06  .600000000000D+01
26 09  9  3 17 59 44.0  .635995529592D-04 -.795807864051D-12  .000000000000D+00
     .150000000000D+02  .513437500000D+02  .336835459120D-08 -.168046563956D+01
     .264868140221D-05  .197080199141D-01  .122934579849D-04  .515361109352D+04
     .410384000000D+06  .394880771637D-06  .429777536245D-03 -.484287738800D-07
     .992652826649D+00  .148125000000D+03  .102411767685D+01 -.724673042684D-08
     .150006248362D-09  .100000000000D+01  .154700000000D+04  .000000000000D+00
     .240000000000D+01  .000000000000D+00 -.605359673500D-08  .150000000000D+02
     .403356000000D+06  .400000000000D+01
22 09  9  3 17 59 44.0  .191800296307D-03 -.102318153949D-11  .000000000000D+00
     .600000000000D+01 -.562500000000D+02  .519807366349D-08  .196788678721D+01
    -.296533107758D-05  .532437313814D-02  .589527189732D-05  .515365466690D+04
     .410384000000D+06  .372529029846D-07 -.107149718567D+01 -.132247805595D-06
     .938298266335D+00  .253375000000D+03 -.189227265517D+01 -.846070956537D-08
    -.460376319379D-09  .100000000000D+01  .154700000000D+04  .000000000000D+00
     .240000000000D+01  .000000000000D+00 -.176951289177D-07  .600000000000D+01
     .403986000000D+06  .400000000000D+01
22 09  9  3 19 59 44.0  .191792380065D-03 -.102318153949D-11  .000000000000D+00
     .700000000000D+01 -.565937500000D+02  .515057168484D-08  .301811305037D+01
    -.290013849735D-05  .532442121767D-02  .594928860664D-05  .515365441895D+04
     .417584000000D+06  .447034835815D-07 -.107155713459D+01  .130385160446D-07
     .938295216151D+00  .251718750000D+03 -.189230177456D+01 -.833677583161D-08
    -.517164399116D-09  .100000000000D+01  .154700000000D+04  .000000000000D+00
     .240000000000D+01  .000000000000D+00 -.176951289177D-07  .700000000000D+01
     .410406000000D+06  .400000000000D+01
 2 09  9  3 20  0  0.0  .169721432030D-03  .272848410532D-11  .000000000000D+00
     .117000000000D+03  .607812500000D+02  .530664961469D-08  .164695278304D+01
     .329315662384D-05  .908581784461D-02  .583566725254D-05  .515370067596D+04
     .417600000000D+06  .800937414169D-07 -.216641579658D+01  .141561031342D-06
     .940790715938D+00  .255375000000D+03  .288824940432D+01 -.848142471395D-08
     .190365072327D-09  .100000000000D+01  .154700000000D+04  .000000000000D+00
     .240000000000D+01  .000000000000D+00 -.172294676304D-07  .117000000000D+03
     .410406000000D+06  .400000000000D+01
 3 09  9  3 20  0  0.0  .442321412265D-03  .500222085975D-11  .000000000000D+00
     .530000000000D+02 -.677500000000D+02  .517592988397D-08  .137000267489D+01
    -.333040952682D-05  .123597946949D-01  .124927610159D-04  .515366427994D+04
     .417600000000D+06 -.284984707832D-06  .296824763120D+01  .106170773506D-06
     .927016546394D+00  .124718750000D+03  .934712200618D+00 -.842927968476D-08
    -.785747015231D-10  .100000000000D+01  .154700000000D+04  .000000000000D+00
     .240000000000D+01  .000000000000D+00 -.465661287308D-08  .530000000000D+02
     .410406000000D+06  .400000000000D+01
 4 09  9  3 20  0  0.0 -.249221455306D-03 -.171667124960D-10  .000000000000D+00
     .370000000000D+02  .542812500000D+02  .526664794846D-08 -.178853395525D+01
     .278465449810D-05  .870769517496D-02  .573508441448D-05  .515379168510D+04
     .417600000000D+06  .707805156708D-07 -.214816168472D+01 -.633299350739D-07
     .939968768101D+00  .258031250000D+03  .509469862562D+00 -.841642200633D-08
     .418231706744D-09  .100000000000D+01  .154700000000D+04  .000000000000D+00
     .240000000000D+01  .000000000000D+00 -.605359673500D-08  .370000000000D+02
     .410406000000D+06  .400000000000D+01
 5 09  9  3 20  0  0.0 -.945241190493D-04  .130739863380D-10  .000000000000D+00
     .520000000000D+02 -.473437500000D+02  .467019453235D-08  .283986644050D+01
    -.248104333878D-05  .231538072694D-02  .576674938202D-05  .515713665962D+04
     .417600000000D+06  .111758708954D-07 -.110827933201D+01 -.186264514923D-08
     .961492673023D+00  .268187500000D+03  .841833799288D+00 -.816141138411D-08
    -.466448000860D-09  .100000000000D+01  .154700000000D+04  .000000000000D+00
     .240000000000D+01  .000000000000D+00 -.931322574615D-08  .520000000000D+02
     .410406000000D+06  .400000000000D+01
 6 09  9  3 20  0  0.0  .232457183301D-03  .727595761418D-11  .000000000000D+00
     .131000000000D+03 -.484687500000D+02  .492020494629D-08 -.256236967936D+01
    -.238046050072D-05  .586308084894D-02  .123009085655D-04  .515370977402D+04
     .417600000000D+06  .204890966415D-07  .303661833649D+01  .134110450745D-06
     .934481894888D+00  .125062500000D+03 -.126742377496D+01 -.805604985253D-08
     .728601777760D-10  .100000000000D+01  .154700000000D+04  .000000000000D+00
     .240000000000D+01  .000000000000D+00 -.512227416039D-08  .131000000000D+03
     .410406000000D+06  .400000000000D+01
 7 09  9  3 20  0  0.0  .121509656310D-04 -.682121026330D-12  .000000000000D+00
     .360000000000D+02  .822187500000D+02  .451983112625D-08 -.341087118276D-01
     .433251261711D-05  .308435549960D-02  .474788248539D-05  .515365052986D+04
     .417600000000D+06  .167638063431D-07  .989892253420D+00  .186264514923D-08
     .968478272162D+00  .289968750000D+03  .292588002560D+01 -.826498712703D-08
     .481805783431D-09  .100000000000D+01  .154700000000D+04  .000000000000D+00
     .240000000000D+01  .000000000000D+00 -.107102096081D-07  .360000000000D+02
     .410406000000D+06  .400000000000D+01
 8 09  9  3 20  0  0.0 -.219694804400D-03 -.170530256582D-11  .000000000000D+00
     .550000000000D+02  .685625000000D+02  .405338312539D-08 -.722017533123D+00
     .346079468727D-05  .109139294364D-01  .424683094025D-05  .515362277031D+04
     .417600000000D+06  .109896063805D-06  .105230602358D+01 -.149011611938D-06
     .989667183473D+00  .308468750000D+03  .301486084743D+01 -.808319384033D-08
     .509664086698D-09  .100000000000D+01  .154700000000D+04  .000000000000D+00
     .240000000000D+01  .000000000000D+00 -.372529029846D-08  .550000000000D+02
     .410406000000D+06  .400000000000D+01
